{
  "type": "FeatureCollection",
  "features": [
    {
      "type": "Feature",
      "geometry": {
        "type": "Point",
        "coordinates": [
          77.5946,
          12.9716
        ]
      },
      "properties": {
        "date": "2026-08-20T09:15:30.123Z",
        "five_star_rating_published": 5,
        "google_maps_url": "https://www.google.com/maps/search/?api=1&query=Recz+Fixture+Cafe",
        "location": [
          {
            "address": "101 Example Road, Bengaluru, Karnataka 560001, India",
            "country_code": "IN",
            "name": "Recz Fixture Cafe"
          }
        ],
        "review_text_published": "A fully synthetic review used only to exercise the importer."
      }
    },
    {
      "type": "Feature",
      "geometry": {
        "type": "Point",
        "coordinates": [
          0,
          0
        ]
      },
      "properties": {
        "date": "2026-08-21T11:45:00Z",
        "five_star_rating_published": 3,
        "google_maps_url": "https://www.google.com/maps/search/?api=1&query=Recz+Fixture+Bistro",
        "location": [
          {
            "address": "202 Sample Street, Pune, Maharashtra 411001, India",
            "country_code": "IN",
            "name": "Recz Fixture Bistro"
          }
        ]
      }
    },
    {
      "type": "Feature",
      "geometry": {
        "type": "Point",
        "coordinates": [
          72.8777,
          19.076
        ]
      },
      "properties": {
        "date": "2026-08-22T16:20:10Z",
        "five_star_rating_draft": 4,
        "google_maps_url": "https://www.google.com/maps/search/?api=1&query=Recz+Fixture+Kitchen",
        "location": [
          {
            "address": "303 Demonstration Lane, Mumbai, Maharashtra 400001, India",
            "country_code": "IN",
            "name": "Recz Fixture Kitchen"
          }
        ],
        "review_text_draft": "This synthetic draft must be skipped by the default import path."
      }
    }
  ]
}
